XRISM                   
1 57800U 23137A   23270.03249724  .00006470  00000+0  52838-3 0  9996
2 57800  31.0027 249.7500 0009927 116.1042 244.0615 14.97994340  3009
